{
    "links": {
        "self": "http://www.neowsapp.com/rest/v1/neo/3549565?api_key=iIulBulltgU6a56xZRHN4H3l9WmuAYTsLGpBGhQ2"
    },
    "id": "3549565",
    "neo_reference_id": "3549565",
    "name": "(2010 TN167)",
    "designation": "2010 TN167",
    "nasa_jpl_url": "http://ssd.jpl.nasa.gov/sbdb.cgi?sstr=3549565",
    "absolute_magnitude_h": 27.1,
    "estimated_diameter": {
        "kilometers": {
            "estimated_diameter_min": 0.0101054342,
            "estimated_diameter_max": 0.0225964377
        },
        "meters": {
            "estimated_diameter_min": 10.1054341542,
            "estimated_diameter_max": 22.5964377109
        },
        "miles": {
            "estimated_diameter_min": 0.0062792237,
            "estimated_diameter_max": 0.0140407711
        },
        "feet": {
            "estimated_diameter_min": 33.1543125905,
            "estimated_diameter_max": 74.1352966996
        }
    },
    "is_potentially_hazardous_asteroid": false,
    "close_approach_data": [
        {
            "close_approach_date": "2010-10-20",
            "close_approach_date_full": "2010-Oct-20 00:54",
            "epoch_date_close_approach": 1287536040000,
            "relative_velocity": {
                "kilometers_per_second": "16.4326751014",
                "kilometers_per_hour": "59157.6303649946",
                "miles_per_hour": "36758.2509342935"
            },
            "miss_distance": {
                "astronomical": "0.0140453634",
                "lunar": "5.4636463626",
                "kilometers": "2101156.448015958",
                "miles": "1305598.0754099004"
            },
            "orbiting_body": "Earth"
        },
        {
            "close_approach_date": "2010-11-20",
            "close_approach_date_full": "2010-Nov-20 13:24",
            "epoch_date_close_approach": 1290259440000,
            "relative_velocity": {
                "kilometers_per_second": "12.310614561",
                "kilometers_per_hour": "44318.2124194625",
                "miles_per_hour": "27537.6137114155"
            },
            "miss_distance": {
                "astronomical": "0.0564003095",
                "lunar": "21.9397203955",
                "kilometers": "8437366.168540765",
                "miles": "5242736.228221957"
            },
            "orbiting_body": "Venus"
        }
    ],
    "orbital_data": {
        "orbit_id": "6",
        "orbit_determination_date": "2017-04-06 08:56:14",
        "first_observation_date": "2010-10-14",
        "last_observation_date": "2010-10-16",
        "data_arc_in_days": 2,
        "observations_used": 12,
        "orbit_uncertainty": "9",
        "minimum_orbit_intersection": ".00932406",
        "jupiter_tisserand_invariant": "3.976",
        "epoch_osculation": "2455484.5",
        "eccentricity": ".5880079656241836",
        "semi_major_axis": "1.703193586505388",
        "inclination": "5.416231442225987",
        "ascending_node_longitude": "201.5188396726583",
        "orbital_period": "811.8848669125377",
        "perihelion_distance": ".7017021906401981",
        "perihelion_argument": "264.100653886108",
        "aphelion_distance": "2.704684982370579",
        "perihelion_time": "2455537.651963304689",
        "mean_anomaly": "336.4317484294859",
        "mean_motion": ".4434126249563189",
        "equinox": "J2000",
        "orbit_class": {
            "orbit_class_type": "APO",
            "orbit_class_description": "Near-Earth asteroid orbits which cross the Earth’s orbit similar to that of 1862 Apollo",
            "orbit_class_range": "a (semi-major axis) > 1.0 AU; q (perihelion) < 1.017 AU"
        }
    },
    "is_sentry_object": false
}